STARLINK-30169          
1 57499U 23113E   26068.17478772 -.00001723  00000+0 -53049-4 0  9998
2 57499  43.0048   4.7938 0002385 269.5550  90.5028 15.27589512143609
FLOCK 4G-15             
1 62678U 25009BX  26068.71779869  .00012647  00000+0  47575-3 0  9991
2 62678  97.4054 151.1927 0003699 316.8208  43.2740 15.27266411121358
